OBJECT_NAME,OBJECT_ID,EPOCH,MEAN_MOTION,ECCENTRICITY,INCLINATION,RA_OF_ASC_NODE,ARG_OF_PERICENTER,MEAN_ANOMALY,EPHEMERIS_TYPE,CLASSIFICATION_TYPE,NORAD_CAT_ID,ELEMENT_SET_NO,REV_AT_EPOCH,BSTAR,MEAN_MOTION_DOT,MEAN_MOTION_DDOT
INTELSAT 23 (IS-23),2012-057A,2026-07-06T06:41:55.104000,1.00275993,.00004079,0.0109,47.6735,93.5232,190.5418,0,U,38867,999,5014,0,-.27E-5,0
FM-6,2013-058A,2026-07-06T03:16:41.217024,1.00271103,.00022401,0.0112,53.6595,122.8451,40.4663,0,U,39360,999,4626,0,-.2E-7,0
INTELSAT 30 (IS-30),2014-062A,2026-07-06T03:23:43.293984,1.00270026,.00013981,0.0167,46.9253,346.3878,206.7018,0,U,40271,999,698,0,-.136E-5,0
DIRECTV 14,2014-078B,2026-07-06T04:45:59.137632,1.00271326,.00000824,0.0131,43.0604,317.2753,256.0979,0,U,40333,999,4223,0,-.111E-5,0
DIRECTV 15,2015-026A,2026-07-06T02:56:25.003968,1.00278382,.00005776,0.0162,67.2028,287.0722,231.0719,0,U,40663,999,4065,0,-.89E-6,0
SKY MEXICO-1,2015-026B,2026-07-06T04:51:53.798400,1.00271589,.00025033,0.0222,291.1635,193.0121,154.1968,0,U,40664,999,4064,0,-.22E-5,0
INTELSAT 34 (IS-34),2015-039A,2026-07-06T03:15:52.197984,1.00270686,.00002855,0.0113,340.4142,45.0132,252.1738,0,U,40874,999,3982,0,-.271E-5,0
INTELSAT 31 (IS-31),2016-035A,2026-07-06T06:29:56.251680,1.00270733,.00008295,0.0403,211.4121,55.4380,19.8435,0,U,41581,999,3687,0,-.136E-5,0
INTELSAT 36 (IS-36),2016-053A,2026-07-06T02:08:38.061888,1.00272333,.00021565,0.0088,357.7532,348.3303,38.6546,0,U,41747,999,3614,0,-.1E-6,0
INTELSAT 32E (IS-32E),2017-007B,2026-07-06T05:02:00.328992,1.00273073,.00008377,0.0177,341.1822,13.2972,322.0488,0,U,41945,999,3441,0,-.254E-5,0
INTELSAT 35E (IS-35E),2017-041A,2026-07-06T07:41:12.058944,1.00272035,.00018412,0.0180,346.1304,114.9475,264.0388,0,U,42818,999,3300,0,-.223E-5,0
INTELSAT 37E (IS-37E),2017-059A,2026-07-06T01:43:55.430976,1.00272309,.00026872,0.0153,59.3797,46.8013,185.8685,0,U,42950,999,3225,0,-.126E-5,0
AZERSPACE 2 (IS-38),2018-074A,2026-07-06T05:26:57.935616,1.00269858,.00012961,0.0186,18.0978,95.5679,297.4035,0,U,43632,999,2863,0,0,0
HORIZONS-3E,2018-074B,2026-07-05T18:04:01.043040,1.00272989,.00006006,0.0303,236.7690,47.0369,79.9572,0,U,43633,999,2852,0,-.16E-6,0
AT&T T-16,2019-034A,2026-07-05T20:12:07.116192,1.00271742,.00006948,0.0149,56.2676,275.5644,154.1815,0,U,44333,999,2582,0,-.101E-5,0
INTELSAT 39 (IS-39),2019-049B,2026-07-06T05:31:57.457632,1.00269647,.0000733,0.0210,30.7715,293.7034,104.6789,0,U,44476,999,2531,0,0,0
GALAXY 30 (G-30),2020-056C,2026-07-06T01:13:27.995808,1.00273430,.00019801,0.0181,36.0032,70.3190,71.0988,0,U,46114,999,2148,0,.51E-6,0
GALAXY 33 (G-33),2022-128A,2026-07-05T21:45:38.492064,1.00271642,.00019098,0.0199,60.6254,40.7490,15.9321,0,U,54026,999,1393,0,.93E-6,0
GALAXY 34 (G-34),2022-128B,2026-07-05T18:21:36.856224,1.00274436,.00018071,0.0172,13.7883,107.9387,308.4392,0,U,54027,999,1409,0,0,0
GALAXY 31 (G-31),2022-153A,2026-07-05T21:49:15.643776,1.00272424,.00013938,0.0241,93.4797,12.8884,23.8446,0,U,54243,999,732,0,.27E-6,0
GALAXY 32 (G-32),2022-153B,2026-07-06T03:05:41.667072,1.00271060,.00016842,0.0098,10.1353,39.8195,189.5913,0,U,54244,999,1333,0,-.16E-5,0
GALAXY 35 (G-35),2022-170A,2026-07-06T04:03:34.463232,1.00271951,.00021222,0.0198,88.4316,18.8562,144.6608,0,U,54741,999,1308,0,-.148E-5,0
GALAXY 36 (G-36),2022-170B,2026-07-06T02:35:55.761792,1.00271396,.00027234,0.0208,132.7280,323.8236,137.5283,0,U,54742,999,1296,0,-.171E-5,0
GALAXY 37 (G-37),2023-112A,2026-07-06T01:12:50.556096,1.00270869,.00018247,0.0225,35.0044,79.9404,60.3045,0,U,57493,999,1073,0,0,0
