INTELSAT 23 (IS-23)     
1 38867U 12057A   26187.27911000 -.00000270  00000+0  00000+0 0  9999
2 38867   0.0109  47.6735 0000407  93.5232 190.5418  1.00275993 50145
FM-6                    
1 39360U 13058A   26187.13658816 -.00000002  00000+0  00000+0 0  9991
2 39360   0.0112  53.6595 0002240 122.8451  40.4663  1.00271103 46267
INTELSAT 30 (IS-30)     
1 40271U 14062A   26187.14147331 -.00000136  00000+0  00000+0 0  9994
2 40271   0.0167  46.9253 0001398 346.3878 206.7018  1.00270026  6984
DIRECTV 14              
1 40333U 14078B   26187.19860113 -.00000111  00000+0  00000+0 0  9998
2 40333   0.0131  43.0604 0000082 317.2753 256.0979  1.00271326 42236
DIRECTV 15              
1 40663U 15026A   26187.12251162 -.00000089  00000+0  00000+0 0  9993
2 40663   0.0162  67.2028 0000577 287.0722 231.0719  1.00278382 40651
SKY MEXICO-1            
1 40664U 15026B   26187.20270600 -.00000220  00000+0  00000+0 0  9998
2 40664   0.0222 291.1635 0002503 193.0121 154.1968  1.00271589 40643
INTELSAT 34 (IS-34)     
1 40874U 15039A   26187.13602081 -.00000271  00000+0  00000+0 0  9995
2 40874   0.0113 340.4142 0000285  45.0132 252.1738  1.00270686 39828
INTELSAT 31 (IS-31)     
1 41581U 16035A   26187.27078995 -.00000136  00000+0  00000+0 0  9994
2 41581   0.0403 211.4121 0000829  55.4380  19.8435  1.00270733 36871
INTELSAT 36 (IS-36)     
1 41747U 16053A   26187.08932942 -.00000010  00000+0  00000+0 0  9999
2 41747   0.0088 357.7532 0002156 348.3303  38.6546  1.00272333 36148
INTELSAT 32E (IS-32E)   
1 41945U 17007B   26187.20972603 -.00000254  00000+0  00000+0 0  9991
2 41945   0.0177 341.1822 0000837  13.2972 322.0488  1.00273073 34415
INTELSAT 35E (IS-35E)   
1 42818U 17041A   26187.32027846 -.00000223  00000+0  00000+0 0  9998
2 42818   0.0180 346.1304 0001841 114.9475 264.0388  1.00272035 33007
INTELSAT 37E (IS-37E)   
1 42950U 17059A   26187.07216934 -.00000126  00000+0  00000+0 0  9996
2 42950   0.0153  59.3797 0002687  46.8013 185.8685  1.00272309 32253
AZERSPACE 2 (IS-38)     
1 43632U 18074A   26187.22705944  .00000000  00000+0  00000+0 0  9993
2 43632   0.0186  18.0978 0001296  95.5679 297.4035  1.00269858 28635
HORIZONS-3E             
1 43633U 18074B   26186.75278985 -.00000016  00000+0  00000+0 0  9999
2 43633   0.0303 236.7690 0000600  47.0369  79.9572  1.00272989 28529
AT&T T-16               
1 44333U 19034A   26186.84174903 -.00000101  00000+0  00000+0 0  9994
2 44333   0.0149  56.2676 0000694 275.5644 154.1815  1.00271742 25823
INTELSAT 39 (IS-39)     
1 44476U 19049B   26187.23052613  .00000000  00000+0  00000+0 0  9992
2 44476   0.0210  30.7715 0000733 293.7034 104.6789  1.00269647 25315
GALAXY 30 (G-30)        
1 46114U 20056C   26187.05101847  .00000051  00000+0  00000+0 0  9993
2 46114   0.0181  36.0032 0001980  70.3190  71.0988  1.00273430 21488
GALAXY 33 (G-33)        
1 54026U 22128A   26186.90669551  .00000093  00000+0  00000+0 0  9996
2 54026   0.0199  60.6254 0001909  40.7490  15.9321  1.00271642 13934
GALAXY 34 (G-34)        
1 54027U 22128B   26186.76500991  .00000000  00000+0  00000+0 0  9991
2 54027   0.0172  13.7883 0001807 107.9387 308.4392  1.00274436 14091
GALAXY 31 (G-31)        
1 54243U 22153A   26186.90920884  .00000027  00000+0  00000+0 0  9991
2 54243   0.0241  93.4797 0001393  12.8884  23.8446  1.00272424  7324
GALAXY 32 (G-32)        
1 54244U 22153B   26187.12895448 -.00000160  00000+0  00000+0 0  9993
2 54244   0.0098  10.1353 0001684  39.8195 189.5913  1.00271060 13338
GALAXY 35 (G-35)        
1 54741U 22170A   26187.16914888 -.00000148  00000+0  00000+0 0  9994
2 54741   0.0198  88.4316 0002122  18.8562 144.6608  1.00271951 13085
GALAXY 36 (G-36)        
1 54742U 22170B   26187.10828428 -.00000171  00000+0  00000+0 0  9999
2 54742   0.0208 132.7280 0002723 323.8236 137.5283  1.00271396 12964
GALAXY 37 (G-37)        
1 57493U 23112A   26187.05058514  .00000000  00000+0  00000+0 0  9997
2 57493   0.0225  35.0044 0001824  79.9404  60.3045  1.00270869 10735
